CENTAURI-1              
1 43809U 18099BD  26196.11698659  .00002727  00000+0  14266-3 0  9999
2 43809  97.4207 247.2388 0012981 225.2643 134.7534 15.16624225416736
CENTAURI-6              
1 59451U 24066K   26196.06197078  .00002416  00000+0  17963-3 0  9995
2 59451  45.6064 108.8944 0001618 250.0985 109.9724 15.06034040124327
CENTAURI-7              
1 62708U 25009DD  26196.18490353  .00001835  00000+0  16044-3 0  9990
2 62708  97.7101 276.1058 0002717 102.5815 257.5711 14.97974613 81657
CENTAURI-8              
1 62714U 25009DK  26196.14678034  .00001436  00000+0  12683-3 0  9999
2 62714  97.7038 275.8890 0002483  78.1505 281.9996 14.97926008 81669
