{"fetched_at":"2026-07-15T17:47:04.466Z","source":"https://celestrak.org/NORAD/elements/gp.php?NAME=CENTAURI&FORMAT=JSON","constellation":"myriota","records":[{"OBJECT_NAME":"CENTAURI-1","OBJECT_ID":"2018-099BD","EPOCH":"2026-07-15T02:48:27.641376","CLASSIFICATION_TYPE":"U","MEAN_MOTION":15.16624225,"ECCENTRICITY":0.0012981,"INCLINATION":97.4207,"RA_OF_ASC_NODE":247.2388,"ARG_OF_PERICENTER":225.2643,"MEAN_ANOMALY":134.7534,"EPHEMERIS_TYPE":0,"NORAD_CAT_ID":43809,"ELEMENT_SET_NO":999,"REV_AT_EPOCH":41673,"BSTAR":0.00014266,"MEAN_MOTION_DOT":0.00002727,"MEAN_MOTION_DDOT":0},{"OBJECT_NAME":"CENTAURI-6","OBJECT_ID":"2024-066K","EPOCH":"2026-07-15T01:29:14.275392","CLASSIFICATION_TYPE":"U","MEAN_MOTION":15.0603404,"ECCENTRICITY":0.0001618,"INCLINATION":45.6064,"RA_OF_ASC_NODE":108.8944,"ARG_OF_PERICENTER":250.0985,"MEAN_ANOMALY":109.9724,"EPHEMERIS_TYPE":0,"NORAD_CAT_ID":59451,"ELEMENT_SET_NO":999,"REV_AT_EPOCH":12432,"BSTAR":0.00017963,"MEAN_MOTION_DOT":0.00002416,"MEAN_MOTION_DDOT":0},{"OBJECT_NAME":"CENTAURI-7","OBJECT_ID":"2025-009DD","EPOCH":"2026-07-15T04:26:15.664992","CLASSIFICATION_TYPE":"U","MEAN_MOTION":14.97974613,"ECCENTRICITY":0.0002717,"INCLINATION":97.7101,"RA_OF_ASC_NODE":276.1058,"ARG_OF_PERICENTER":102.5815,"MEAN_ANOMALY":257.5711,"EPHEMERIS_TYPE":0,"NORAD_CAT_ID":62708,"ELEMENT_SET_NO":999,"REV_AT_EPOCH":8165,"BSTAR":0.00016044,"MEAN_MOTION_DOT":0.00001835,"MEAN_MOTION_DDOT":0},{"OBJECT_NAME":"CENTAURI-8","OBJECT_ID":"2025-009DK","EPOCH":"2026-07-15T03:31:21.821376","CLASSIFICATION_TYPE":"U","MEAN_MOTION":14.97926008,"ECCENTRICITY":0.0002483,"INCLINATION":97.7038,"RA_OF_ASC_NODE":275.889,"ARG_OF_PERICENTER":78.1505,"MEAN_ANOMALY":281.9996,"EPHEMERIS_TYPE":0,"NORAD_CAT_ID":62714,"ELEMENT_SET_NO":999,"REV_AT_EPOCH":8166,"BSTAR":0.00012683,"MEAN_MOTION_DOT":0.00001436,"MEAN_MOTION_DDOT":0}]}
